TISAT 1                 
1 36799U 10035E   26068.75703561  .00024554  00000+0  91005-3 0  9996
2 36799  98.0645   6.8512 0001343 159.3030 200.8262 15.27628633852505
STARLINK-32763          
1 62750U 25014R   26067.60053711  .00037707  00000+0  13710-2 0  9993
2 62750  42.9992 160.2923 0001399 268.2367  91.8325 15.27621488 63096
